2025-155V               
1 64895U 25155V   26068.85787115  .00013705  00000+0  51002-3 0  9990
2 64895  97.4485  37.2490 0008035 152.8264 207.3397 15.27583301 65579
STARLINK-36451          
1 67339U 26003F   26067.51845920  .00030584  00000+0  11161-2 0  9995
2 67339  43.0010 233.7783 0001494 268.3388  91.7293 15.27586134  8648
